[{"OBJECT_NAME":"IRIDIUM 111","OBJECT_ID":"2017-003K","EPOCH":"2026-03-09T16:49:02.226144","MEAN_MOTION":14.34218028,"ECCENTRICITY":0.00021015,"INCLINATION":86.3976,"RA_OF_ASC_NODE":129.9805,"ARG_OF_PERICENTER":94.2487,"MEAN_ANOMALY":265.8949,"EPHEMERIS_TYPE":0,"CLASSIFICATION_TYPE":"U","NORAD_CAT_ID":41926,"ELEMENT_SET_NO":999,"REV_AT_EPOCH":47899,"BSTAR":1.777394e-5,"MEAN_MOTION_DOT":7.0e-7,"MEAN_MOTION_DDOT":0},{"OBJECT_NAME":"CZ-6A DEB","OBJECT_ID":"2024-140YV","EPOCH":"2026-03-09T16:09:20.566080","MEAN_MOTION":14.21904769,"ECCENTRICITY":0.00750972,"INCLINATION":89.2825,"RA_OF_ASC_NODE":304.9499,"ARG_OF_PERICENTER":193.3493,"MEAN_ANOMALY":166.5714,"EPHEMERIS_TYPE":0,"CLASSIFICATION_TYPE":"U","NORAD_CAT_ID":61428,"ELEMENT_SET_NO":999,"REV_AT_EPOCH":8016,"BSTAR":0.0010674724,"MEAN_MOTION_DOT":2.435e-5,"MEAN_MOTION_DDOT":0}]
